P/2015 P4 (PANSTARRS),e,8.7175,104.7501,280.5724,6.048604,0.0662554,0.58495026,131.7469,07/01.0/2021,2000,g 14.0,4.0
# From MPC102952
P/2015 PD229 (Cameron-ISON),e,2.0263,342.6322,352.4976,7.184219,0.0511841,0.32818230,109.8158,07/01.0/2021,2000,g 11.5,2.0
# From MPC 99819
P/2015 Q1 (Scotti),e,22.3855,202.8644,199.8356,3.474928,0.1521547,0.47811597,325.3709,07/01.0/2021,2000,g 14.0,4.0
# From MPC 96867
P/2015 Q2 (Pimentel),e,146.5076,228.4425,244.5237,7.349508,0.0494671,0.75067902,105.1284,07/01.0/2021,2000,g 15.5,4.0
# From MPC 98562
P/2015 R1 (PANSTARRS),e,22.6826,48.4050,300.4590,5.880176,0.0691224,0.63426630,151.6714,07/01.0/2021,2000,g 14.0,4.0
# From MPC 95734
P/2015 R2 (PANSTARRS),e,15.4826,168.5976,149.7813,4.487779,0.1036709,0.45292357,229.0869,07/01.0/2021,2000,g 14.5,4.0
# From MPC117068
C/2015 T2 (PANSTARRS),e,124.5549,51.0130,30.6546,1817,0.0000127,0.99618290,0.0000,05/18.2373/2017,2000,g  8.0,4.0
# From MPC 96280
P/2015 T3 (PANSTARRS),e,13.0937,120.5019,178.6330,4.326181,0.1095335,0.50818108,359.9227,12/21.0/2014,2000,g 14.0,4.0
# From MPC102953
C/2015 T4 (PANSTARRS),e,88.0189,251.8504,270.0765,79.57190,0.0013886,0.97108790,0.0000,06/16.5896/2016,2000,g 11.0,4.0
# From MPC102953
P/2015 TO19 (Lemmon-PANSTARRS),e,6.4995,321.6513,89.1155,4.555266,0.1013756,0.35837781,197.0336,07/01.0/2021,2000,g 14.0,4.0
# From MPC110080
P/2015 TP200 (LINEAR),e,8.7786,7.0057,82.5629,7.272517,0.0502547,0.53513309,85.8290,07/01.0/2021,2000,g 11.0,4.0
# From MPC101097
C/2015 TQ209 (LINEAR),e,11.3059,223.3919,282.1053,548.3210,0.0000768,0.99741828,0.0000,08/25.0112/2016,2000,g 10.5,4.0
# From MPC115881
C/2015 V1 (PANSTARRS),e,139.2249,197.1735,179.6230,2117,0.0000101,0.99798266,0.0000,12/16.6614/2017,2000,g  6.5,4.0
# From MPC112390
C/2015 V2 (Johnson),h,06/11.6690/2017,49.8416,69.9271,165.0006,1.001839,1.645726,2000,5.0,4.0
# From MPC104791
C/2015 V4 (PANSTARRS),e,60.7940,179.9451,306.9331,18.46076,0.0124260,0.70434777,21.9687,07/01.0/2021,2000,g  8.5,4.0
# From MPC115881
C/2015 VL62 (Lemmon-Yeung-PANSTARRS),h,08/27.8608/2017,165.8184,95.1223,128.8481,1.001357,2.720203,2000,8.0,4.0
# From MPC101098
P/2015 W2 (Catalina),e,11.6071,294.2403,117.4875,7.294237,0.0500304,0.63419206,105.0536,07/01.0/2021,2000,g 13.0,4.0
# From MPC101098
P/2015 X1 (PANSTARRS),e,12.1516,161.7643,218.9019,3.633073,0.1423288,0.41909106,298.3624,07/01.0/2021,2000,g 16.0,4.0
# From MPEC 2020-AA5
C/2015 XY1 (Lemmon),h,04/27.1003/2018,148.8535,281.6140,196.1966,1.001985,7.922972,2000,5.5,4.0
# From MPC 97498
P/2015 X3 (PANSTARRS),e,24.3906,77.3020,306.6677,5.008286,0.0879368,0.43919364,189.3416,07/01.0/2021,2000,g 15.0,4.0
# From MPC119995
C/2015 X5 (PANSTARRS),h,12/28.8117/2017,124.3086,122.3432,27.6216,1.001142,6.795828,2000,7.5,4.0
# From MPC115881
P/2015 X6 (PANSTARRS),e,4.5646,106.9464,329.8541,2.753498,0.2157133,0.17267437,55.4186,07/01.0/2021,2000,g 16.0,4.0
# From MPC109143
C/2015 X7 (ATLAS),e,57.5593,139.9331,348.3370,5832,0.0000022,0.99936930,0.0000,07/28.9920/2016,2000,g  9.0,4.0
# From MPC119995
C/2016 A1 (PANSTARRS),h,11/22.1105/2017,121.2054,128.2062,10.1982,1.000750,5.320650,2000,6.0,4.0
# From MPC100282
P/2016 A2 (Christensen),e,26.4045,291.6168,141.4218,4.752244,0.0951384,0.27054026,209.9537,07/01.0/2021,2000,g 11.5,4.0
# From MPC115881
P/2016 A3 (PANSTARRS),e,8.5100,187.2449,341.0235,7.888407,0.0444857,0.38666307,67.8201,07/01.0/2021,2000,g 10.0,4.0
# From MPC102098
P/2016 A7 (PANSTARRS),e,16.6135,221.4937,352.6125,5.032888,0.0872928,0.56483938,170.6208,07/01.0/2021,2000,g 16.0,4.0
# From MPC106345
C/2016 A8 (LINEAR),e,148.2430,111.3580,130.4772,34.37362,0.0048906,0.94494996,8.6417,07/01.0/2021,2000,g 12.0,4.0
# From MPC107048
C/2016 B1 (NEOWISE),e,50.4370,232.0303,8.6850,434.7077,0.0001087,0.99259757,0.0000,12/04.2934/2016,2000,g  9.5,4.0
# From MPC109143
P/2016 BA14 (PANSTARRS),e,18.8938,180.5265,351.8880,3.025261,0.1873095,0.66521088,2.5620,07/01.0/2021,2000,g 21.0,4.0
# From MPC110494
C/2016 E1 (PANSTARRS),h,06/04.3832/2017,131.8818,233.0973,47.4785,1.006413,8.177877,2000,6.5,4.0
# From MPC102098
P/2016 G1 (PANSTARRS),e,10.9697,204.0242,111.1742,2.583150,0.2373994,0.21111378,23.9720,07/01.0/2021,2000,g 14.0,4.0
# From MPEC 2017-D91
P/2016 J1-A (PANSTARRS),e,14.3273,199.8108,46.9559,3.173149,0.1743687,0.22797096,319.0969,07/01.0/2021,2000,g 16.5,4.0
# From MPEC 2017-A77
P/2016 J1-B (PANSTARRS),e,14.3301,199.8156,46.8470,3.172778,0.1743992,0.22782161,319.2276,07/01.0/2021,2000,g 17.0,4.0
# From MPC104792
C/2016 K1 (LINEAR),h,07/13.7037/2016,90.9475,325.6105,18.3401,1.000329,2.296870,2000,13.0,4.0
# From MPC119995
C/2016 M1 (PANSTARRS),e,90.9731,92.2201,209.9171,14234,0.0000006,0.99984450,0.0000,08/10.4675/2018,2000,g  5.0,4.0
# From MPC115881
C/2016 N4 (MASTER),e,72.6350,353.9921,55.9425,3148,0.0000056,0.99898430,0.0000,09/16.8207/2017,2000,g  8.5,4.0
# From MPC119995
C/2016 N6 (PANSTARRS),e,105.8416,298.9837,162.6897,1295,0.0000212,0.99794219,0.0000,07/17.9297/2018,2000,g  7.0,4.0
# From MPC102099
P/2016 P1 (PANSTARRS),e,24.4563,319.5648,270.1001,3.193283,0.1727221,0.28906656,3.5799,07/01.0/2021,2000,g 15.0,4.0
# From MPC102099
C/2016 P4 (PANSTARRS),e,29.8803,320.7234,356.2692,421.0034,0.0001141,0.98598535,0.0000,10/18.8105/2016,2000,g 10.5,4.0
# From MPC118093
C/2016 Q2 (PANSTARRS),h,05/11.9237/2021,109.3882,322.2955,84.5314,1.000811,7.081861,2000,6.0,4.0
# From MPC102955
C/2016 Q4 (Kowalski),e,7.2548,271.2929,99.4743,16.95228,0.0141209,0.58192104,17.6448,07/01.0/2021,2000,g  7.0,4.0
# From MPC119995
C/2016 R2 (PANSTARRS),e,58.2465,80.5535,33.1406,497.7882,0.0000887,0.99477437,0.0000,05/09.0289/2018,2000,g  7.0,4.0
# From MPC102099
C/2016 R3 (Borisov),e,53.0260,78.8126,118.1554,197.0824,0.0003562,0.99769523,0.0000,10/09.8431/2016,2000,g 18.0,4.0
# From MPC109144
P/2016 R4 (Gibbs),e,10.8754,168.2658,174.0466,5.331616,0.0800600,0.47637191,144.4659,07/01.0/2021,2000,g 12.5,4.0
# From MPC105543
P/2016 S1 (PANSTARRS),e,94.6873,227.5681,273.2801,8.278222,0.0413808,0.70995931,64.8877,07/01.0/2021,2000,g 12.0,4.0
# From MPC105238
C/2016 T1 (Matheny),e,129.8511,56.3586,137.5004,125.5950,0.0007002,0.98164049,0.0000,02/01.4792/2017,2000,g 14.5,4.0
# From MPC107685
C/2016 T2 (Matheny),e,81.4050,339.1905,92.1891,99.31553,0.0009958,0.98084475,0.0000,12/29.5873/2016,2000,g 14.5,4.0
# From MPC110082
C/2016 T3 (PANSTARRS),e,22.6869,271.7169,194.6145,130.2554,0.0006630,0.97968903,0.0000,09/06.4187/2017,2000,g 10.5,4.0
# From MPC103847
C/2016 U1 (NEOWISE),h,01/13.6773/2017,46.2570,61.5975,162.8056,1.000403,0.324104,2000,17.0,4.0
# From MPC106345
C/2016 VZ18 (PANSTARRS),e,23.9848,98.9223,36.3900,160.6486,0.0004840,0.99430978,0.0000,03/05.1693/2017,2000,g 19.5,4.0
# From MPC106345
P/2016 WM48 (Lemmon),e,117.4744,59.9071,36.0902,8.165052,0.0422441,0.78373712,67.1054,07/01.0/2021,2000,g 15.0,4.0
# From MPC119995
C/2016 X1 (Lemmon),e,26.4529,256.3967,224.4868,1250,0.0000223,0.99395136,0.0000,04/28.2423/2019,2000,g  6.0,4.0
# From MPC108594
C/2017 A1 (PANSTARRS),e,49.7953,121.0399,1.9856,75.66855,0.0014974,0.96975106,2.2565,07/01.0/2021,2000,g 13.0,4.0
# From MPC108594
C/2017 A3 (Elenin),e,98.5218,97.8856,303.9702,43.41000,0.0034460,0.91145607,5.5552,07/01.0/2021,2000,g  9.5,4.0
# From MPC114598
C/2017 AB5 (PANSTARRS),e,32.4461,42.6283,78.3148,2261,0.0000092,0.99592557,0.0000,02/14.9629/2018,2000,g  5.5,4.0
# From MPC119995
C/2017 B3 (LINEAR),h,02/02.4720/2019,54.1656,2.1784,284.8039,1.001375,3.924084,2000,6.0,4.0
# From MPC103847
P/2017 B4 (PANSTARRS),e,20.0584,121.4578,11.0197,4.410520,0.1064068,0.36495152,359.9130,01/05.0/2017,2000,g 14.5,4.0
# From MPC104793
C/2017 C1 (NEOWISE),e,65.7662,357.5731,110.0309,20.56642,0.0105673,0.92719117,17.1662,07/01.0/2021,2000,g 18.0,4.0
# From MPC107685
C/2017 C2 (PANSTARRS),e,118.5849,249.7469,138.5557,95.64082,0.0010538,0.97468052,0.0000,01/21.3385/2017,2000,g 14.0,4.0
# From MPC104793
P/2017 D1 (Fuls),e,20.7562,82.1804,8.0143,4.829642,0.0928606,0.43625747,170.2746,07/01.0/2021,2000,g 14.0,4.0
# From MPC112391
C/2017 D2 (Barros),e,31.2583,330.9466,334.5703,6592,0.0000018,0.99962183,0.0000,07/14.8840/2017,2000,g 11.0,4.0
# From MPC114598
C/2017 D3 (ATLAS),h,04/27.4508/2017,125.5884,186.6951,340.8510,1.002229,4.970763,2000,8.0,4.0
# From MPC110495
P/2017 D4 (PANSTARRS),e,10.5324,264.9374,212.2486,7.559409,0.0474212,0.62831150,83.4698,07/01.0/2021,2000,g 13.0,4.0
# From MPC104794
C/2017 D5 (PANSTARRS),e,131.0409,92.6951,287.6762,113.9119,0.0008107,0.98106384,0.0000,01/09.6903/2017,2000,g 16.0,4.0
# From MPC106346
C/2017 E1 (Borisov),h,04/10.6042/2017,14.5730,142.5605,152.7366,1.003171,0.903748,2000,14.0,4.0
# From MPC115882
C/2017 E3 (PANSTARRS),h,06/07.7326/2017,70.6479,220.7638,334.5038,1.006346,5.938302,2000,6.5,4.0
# From MPC105239
C/2017 E4 (Lovejoy),h,04/23.5702/2017,88.0342,222.9232,87.0668,1.001494,0.491060,2000,17.0,4.0
# From MPC111769
C/2017 F1 (Lemmon),h,11/29.7124/2017,146.4602,158.7886,64.7397,1.002912,4.496260,2000,10.5,4.0
# From MPC114598
C/2017 F2 (PANSTARRS),h,11/26.8873/2017,42.5330,38.6821,135.0055,1.003000,6.930974,2000,7.5,4.0
# From MPC104794
P/2017 G1 (PANSTARRS),e,4.7757,249.6332,224.4967,7.284079,0.0501351,0.65293229,94.8073,07/01.0/2021,2000,g 13.5,4.0
# From MPC108595
P/2017 G2 (PANSTARRS),e,47.9469,79.7896,105.5310,8.062653,0.0430514,0.64789174,63.7667,07/01.0/2021,2000,g 13.0,4.0
# From MPC109144
C/2017 G3 (PANSTARRS),e,159.0484,279.4714,73.0960,315.1198,0.0001762,0.99179161,0.0000,04/16.0808/2017,2000,g 14.0,4.0
# From MPC115882
C/2017 K1 (PANSTARRS),h,03/17.8134/2018,154.0174,225.6844,4.4277,1.002882,7.289383,2000,7.0,4.0
# From MPC119995
C/2017 K2 (PANSTARRS),h,12/19.7380/2022,87.5529,88.2439,236.1884,1.000584,1.797518,2000,1.5,4.0
# From MPC106346
P/2017 K3 (Gasparovic),e,4.2729,354.2778,253.5105,5.583389,0.0747063,0.58018679,111.4695,07/01.0/2021,2000,g 14.5,4.0
# From MPC114598
C/2017 K4 (ATLAS),e,16.6786,298.8748,15.2754,28.59028,0.0064473,0.90719322,8.1846,07/01.0/2021,2000,g 10.0,4.0
# From MPC119995
